[{"OBJECT_NAME":"IXPE","OBJECT_ID":"2021-121A","EPOCH":"2026-03-10T00:00:02.999808","MEAN_MOTION":15.09223379,"ECCENTRICITY":0.00072712,"INCLINATION":0.2307,"RA_OF_ASC_NODE":347.0223,"ARG_OF_PERICENTER":20.3591,"MEAN_ANOMALY":57.9535,"EPHEMERIS_TYPE":0,"CLASSIFICATION_TYPE":"U","NORAD_CAT_ID":49954,"ELEMENT_SET_NO":999,"REV_AT_EPOCH":584,"BSTAR":0.0008624183,"MEAN_MOTION_DOT":0.00015078,"MEAN_MOTION_DDOT":0},{"OBJECT_NAME":"STARLINK-4180","OBJECT_ID":"2022-086AN","EPOCH":"2026-03-09T13:20:37.458240","MEAN_MOTION":15.08833146,"ECCENTRICITY":0.00012973,"INCLINATION":53.2174,"RA_OF_ASC_NODE":184.7208,"ARG_OF_PERICENTER":99.3712,"MEAN_ANOMALY":260.7427,"EPHEMERIS_TYPE":0,"CLASSIFICATION_TYPE":"U","NORAD_CAT_ID":53278,"ELEMENT_SET_NO":999,"REV_AT_EPOCH":20117,"BSTAR":-5.1756097e-5,"MEAN_MOTION_DOT":-1.111e-5,"MEAN_MOTION_DDOT":0}]
